{"type": "FeatureCollection", "features": [ {"type": "Feature", "properties": {"norad_id": 33905, "name": "COSMOS 2251 DEB", "group": "cosmos-2251-debris", "lat": 4.1609096747724355, "lon": 109.8959700164759, "alt_km": 734.1564668646397, "timestamp": "2025-12-26T12:57:39.665052+00:00", "meta": {"OBJECT_NAME": "COSMOS 2251 DEB", "OBJECT_ID": "1993-036DJ", "EPOCH": "2025-12-25T21:21:48.164256", "MEAN_MOTION": 14.35428413, "ECCENTRICITY": 0.0058089, "INCLINATION": 73.8868, "RA_OF_ASC_NODE": 292.3034, "ARG_OF_PERICENTER": 178.9773, "MEAN_ANOMALY": 239.5395, "EPHEMERIS_TYPE": 0, "CLASSIFICATION_TYPE": "U", "NORAD_CAT_ID": 33905, "ELEMENT_SET_NO": 999, "REV_AT_EPOCH": 87876, "BSTAR": 0.00053799, "MEAN_MOTION_DOT": 1.548e-05, "MEAN_MOTION_DDOT": 0}, "tle": {"line1": "1 33905U 93036DJ  25359.89014079  .00001548  00000+0  53799-3 0  9996", "line2": "2 33905  73.8868 292.3034 0058089 178.9773 239.5395 14.35428413878764"}}, "geometry": {"type": "Point", "coordinates": [109.8959700164759, 4.1609096747724355]}}, {"type": "Feature", "properties": {"norad_id": 33906, "name": "COSMOS 2251 DEB", "group": "cosmos-2251-debris", "lat": 58.2704830079262, "lon": -37.164023611760136, "alt_km": 700.1023314082477, "timestamp": "2025-12-26T12:57:39.665062+00:00", "meta": {"OBJECT_NAME": "COSMOS 2251 DEB", "OBJECT_ID": "1993-036DK", "EPOCH": "2025-12-25T22:07:37.012224", "MEAN_MOTION": 14.57306917, "ECCENTRICITY": 0.0036915, "INCLINATION": 74.0302, "RA_OF_ASC_NODE": 296.4211, "ARG_OF_PERICENTER": 324.0836, "MEAN_ANOMALY": 96.415, "EPHEMERIS_TYPE": 0, "CLASSIFICATION_TYPE": "U", "NORAD_CAT_ID": 33906, "ELEMENT_SET_NO": 999, "REV_AT_EPOCH": 88200, "BSTAR": 0.0018801, "MEAN_MOTION_DOT": 8.57e-05, "MEAN_MOTION_DDOT": 0}, "tle": {"line1": "1 33906U 93036DK  25359.92195616  .00008570  00000+0  18801-2 0  9994", "line2": "2 33906  74.0302 296.4211 0036915 324.0836  96.4150 14.57306917882000"}}, "geometry": {"type": "Point", "coordinates": [-37.164023611760136, 58.2704830079262]}}, {"type": "Feature", "properties": {"norad_id": 33907, "name": "COSMOS 2251 DEB", "group": "cosmos-2251-debris", "lat": 25.217447898060655, "lon": -179.14499536721814, "alt_km": 792.6985959977801, "timestamp": "2025-12-26T12:57:39.665073+00:00", "meta": {"OBJECT_NAME": "COSMOS 2251 DEB", "OBJECT_ID": "1993-036DL", "EPOCH": "2025-12-26T02:26:51.759744", "MEAN_MOTION": 14.3063031, "ECCENTRICITY": 0.01119506, "INCLINATION": 74.0705, "RA_OF_ASC_NODE": 9.38, "ARG_OF_PERICENTER": 60.8464, "MEAN_ANOMALY": 356.2762, "EPHEMERIS_TYPE": 0, "CLASSIFICATION_TYPE": "U", "NORAD_CAT_ID": 33907, "ELEMENT_SET_NO": 999, "REV_AT_EPOCH": 86771, "BSTAR": 0.0019061125, "MEAN_MOTION_DOT": 5.31e-05, "MEAN_MOTION_DDOT": 0}, "tle": {"line1": "1 33907U 93036DL  25360.10198796  .00005310  00000+0  19061-2 0  9997", "line2": "2 33907  74.0705   9.3800 0111950  60.8464 356.2762 14.30630310867713"}}, "geometry": {"type": "Point", "coordinates": [-179.14499536721814, 25.217447898060655]}}, {"type": "Feature", "properties": {"norad_id": 33908, "name": "COSMOS 2251 DEB", "group": "cosmos-2251-debris", "lat": 64.60042661114919, "lon": -36.36759237829627, "alt_km": 864.6978646349944, "timestamp": "2025-12-26T12:57:39.665084+00:00", "meta": {"OBJECT_NAME": "COSMOS 2251 DEB", "OBJECT_ID": "1993-036DM", "EPOCH": "2025-12-25T14:14:52.263744", "MEAN_MOTION": 14.07447206, "ECCENTRICITY": 0.0222244, "INCLINATION": 73.8371, "RA_OF_ASC_NODE": 182.9563, "ARG_OF_PERICENTER": 204.1101, "MEAN_ANOMALY": 154.9509, "EPHEMERIS_TYPE": 0, "CLASSIFICATION_TYPE": "U", "NORAD_CAT_ID": 33908, "ELEMENT_SET_NO": 999, "REV_AT_EPOCH": 85654, "BSTAR": 0.0026861, "MEAN_MOTION_DOT": 5.642e-05, "MEAN_MOTION_DDOT": 0}, "tle": {"line1": "1 33908U 93036DM  25359.59366046  .00005642  00000+0  26861-2 0  9998", "line2": "2 33908  73.8371 182.9563 0222244 204.1101 154.9509 14.07447206856549"}}, "geometry": {"type": "Point", "coordinates": [-36.36759237829627, 64.60042661114919]}}, {"type": "Feature", "properties": {"norad_id": 33911, "name": "COSMOS 2251 DEB", "group": "cosmos-2251-debris", "lat": -2.5867191708055497, "lon": 134.23617574010123, "alt_km": 643.8217475696893, "timestamp": "2025-12-26T12:57:39.665094+00:00", "meta": {"OBJECT_NAME": "COSMOS 2251 DEB", "OBJECT_ID": "1993-036DQ", "EPOCH": "2025-12-26T03:27:21.077280", "MEAN_MOTION": 14.75198476, "ECCENTRICITY": 0.00140597, "INCLINATION": 74.0905, "RA_OF_ASC_NODE": 135.7458, "ARG_OF_PERICENTER": 66.6606, "MEAN_ANOMALY": 348.4887, "EPHEMERIS_TYPE": 0, "CLASSIFICATION_TYPE": "U", "NORAD_CAT_ID": 33911, "ELEMENT_SET_NO": 999, "REV_AT_EPOCH": 88842, "BSTAR": 0.0021579624, "MEAN_MOTION_DOT": 0.00014608, "MEAN_MOTION_DDOT": 0}, "tle": {"line1": "1 33911U 93036DQ  25360.14399395  .00014608  00000+0  21580-2 0  9993", "line2": "2 33911  74.0905 135.7458 0014059  66.6606 348.4887 14.75198476888420"}}, "geometry": {"type": "Point", "coordinates": [134.23617574010123, -2.5867191708055497]}}, {"type": "Feature", "properties": {"norad_id": 33912, "name": "COSMOS 2251 DEB", "group": "cosmos-2251-debris", "lat": 1.4854217954319668, "lon": -16.69747187309222, "alt_km": 718.1777790229116, "timestamp": "2025-12-26T12:57:39.665104+00:00", "meta": {"OBJECT_NAME": "COSMOS 2251 DEB", "OBJECT_ID": "1993-036DR", "EPOCH": "2025-12-25T11:28:32.599776", "MEAN_MOTION": 14.51967051, "ECCENTRICITY": 0.0011296, "INCLINATION": 74.033, "RA_OF_ASC_NODE": 165.7278, "ARG_OF_PERICENTER": 245.0608, "MEAN_ANOMALY": 145.0748, "EPHEMERIS_TYPE": 0, "CLASSIFICATION_TYPE": "U", "NORAD_CAT_ID": 33912, "ELEMENT_SET_NO": 999, "REV_AT_EPOCH": 88618, "BSTAR": 0.00082992, "MEAN_MOTION_DOT": 3.327e-05, "MEAN_MOTION_DDOT": 0}, "tle": {"line1": "1 33912U 93036DR  25359.47815509  .00003327  00000+0  82992-3 0  9999", "line2": "2 33912  74.0330 165.7278 0011296 245.0608 145.0748 14.51967051886186"}}, "geometry": {"type": "Point", "coordinates": [-16.69747187309222, 1.4854217954319668]}}, {"type": "Feature", "properties": {"norad_id": 33913, "name": "COSMOS 2251 DEB", "group": "cosmos-2251-debris", "lat": 73.47696818562588, "lon": -97.03524573315313, "alt_km": 755.8460623390347, "timestamp": "2025-12-26T12:57:39.665114+00:00", "meta": {"OBJECT_NAME": "COSMOS 2251 DEB", "OBJECT_ID": "1993-036DS", "EPOCH": "2025-12-25T20:30:08.870112", "MEAN_MOTION": 14.48539545, "ECCENTRICITY": 0.0048173, "INCLINATION": 74.0332, "RA_OF_ASC_NODE": 159.0733, "ARG_OF_PERICENTER": 259.2078, "MEAN_ANOMALY": 220.5321, "EPHEMERIS_TYPE": 0, "CLASSIFICATION_TYPE": "U", "NORAD_CAT_ID": 33913, "ELEMENT_SET_NO": 999, "REV_AT_EPOCH": 88647, "BSTAR": 0.00064836417, "MEAN_MOTION_DOT": 2.443e-05, "MEAN_MOTION_DDOT": 0}, "tle": {"line1": "1 33913U 93036DS  25359.85426933  .00002443  00000+0  64836-3 0  9996", "line2": "2 33913  74.0332 159.0733 0048173 259.2078 220.5321 14.48539545886470"}}, "geometry": {"type": "Point", "coordinates": [-97.03524573315313, 73.47696818562588]}}, {"type": "Feature", "properties": {"norad_id": 33914, "name": "COSMOS 2251 DEB", "group": "cosmos-2251-debris", "lat": -42.78809924362862, "lon": -172.34168231977384, "alt_km": 1145.6689275668905, "timestamp": "2025-12-26T12:57:39.665125+00:00", "meta": {"OBJECT_NAME": "COSMOS 2251 DEB", "OBJECT_ID": "1993-036DT", "EPOCH": "2025-12-26T03:29:35.982240", "MEAN_MOTION": 13.71992842, "ECCENTRICITY": 0.03007747, "INCLINATION": 74.0912, "RA_OF_ASC_NODE": 353.0015, "ARG_OF_PERICENTER": 92.7934, "MEAN_ANOMALY": 341.7967, "EPHEMERIS_TYPE": 0, "CLASSIFICATION_TYPE": "U", "NORAD_CAT_ID": 33914, "ELEMENT_SET_NO": 999, "REV_AT_EPOCH": 84265, "BSTAR": 0.00027030331, "MEAN_MOTION_DOT": 3.19e-06, "MEAN_MOTION_DDOT": 0}, "tle": {"line1": "1 33914U 93036DT  25360.14555535  .00000319  00000+0  27030-3 0  9997", "line2": "2 33914  74.0912 353.0015 0300774  92.7934 341.7967 13.71992842842655"}}, "geometry": {"type": "Point", "coordinates": [-172.34168231977384, -42.78809924362862]}}, {"type": "Feature", "properties": {"norad_id": 33915, "name": "COSMOS 2251 DEB", "group": "cosmos-2251-debris", "lat": -53.952224382239166, "lon": -148.03645028964823, "alt_km": 837.6085596325165, "timestamp": "2025-12-26T12:57:39.665136+00:00", "meta": {"OBJECT_NAME": "COSMOS 2251 DEB", "OBJECT_ID": "1993-036DU", "EPOCH": "2025-12-26T02:05:41.135424", "MEAN_MOTION": 14.35111094, "ECCENTRICITY": 0.01039884, "INCLINATION": 74.0429, "RA_OF_ASC_NODE": 9.6442, "ARG_OF_PERICENTER": 98.5899, "MEAN_ANOMALY": 319.6041, "EPHEMERIS_TYPE": 0, "CLASSIFICATION_TYPE": "U", "NORAD_CAT_ID": 33915, "ELEMENT_SET_NO": 999, "REV_AT_EPOCH": 87949, "BSTAR": 0.0003368011, "MEAN_MOTION_DOT": 9.96e-06, "MEAN_MOTION_DDOT": 0}, "tle": {"line1": "1 33915U 93036DU  25360.08728166  .00000996  00000+0  33680-3 0  9992", "line2": "2 33915  74.0429   9.6442 0103988  98.5899 319.6041 14.35111094879491"}}, "geometry": {"type": "Point", "coordinates": [-148.03645028964823, -53.952224382239166]}}, {"type": "Feature", "properties": {"norad_id": 33916, "name": "COSMOS 2251 DEB", "group": "cosmos-2251-debris", "lat": -34.827469805351626, "lon": 6.438049147019005, "alt_km": 1180.6642118860836, "timestamp": "2025-12-26T12:57:39.665146+00:00", "meta": {"OBJECT_NAME": "COSMOS 2251 DEB", "OBJECT_ID": "1993-036DV", "EPOCH": "2025-12-26T07:56:49.587936", "MEAN_MOTION": 13.68627006, "ECCENTRICITY": 0.03247129, "INCLINATION": 74.0518, "RA_OF_ASC_NODE": 18.256, "ARG_OF_PERICENTER": 187.4797, "MEAN_ANOMALY": 184.633, "EPHEMERIS_TYPE": 0, "CLASSIFICATION_TYPE": "U", "NORAD_CAT_ID": 33916, "ELEMENT_SET_NO": 999, "REV_AT_EPOCH": 84077, "BSTAR": 0.00030142191, "MEAN_MOTION_DOT": 3.52e-06, "MEAN_MOTION_DDOT": 0}, "tle": {"line1": "1 33916U 93036DV  25360.33112949  .00000352  00000+0  30142-3 0  9993", "line2": "2 33916  74.0518  18.2560 0324712 187.4797 184.6330 13.68627006840773"}}, "geometry": {"type": "Point", "coordinates": [6.438049147019005, -34.827469805351626]}}]}